#aV2013  8  7  0  0  0.00000000     288 DD+AD WGS84 FIT  NGA
## 1752 259200.00000000   300.00000000 56511 0.0000000000000
+   31     1  2  3  4  5  6  7  8  9 10 11 12 13 14 15 16 17
+         18 19 20 21 22 23 24 25 26 27 28 29 31 32  0  0  0
+          0  0  0  0  0  0  0  0  0  0  0  0  0  0  0  0  0
+          0  0  0  0  0  0  0  0  0  0  0  0  0  0  0  0  0
+          0  0  0  0  0  0  0  0  0  0  0  0  0  0  0  0  0
++         2  2  2  2  2  2  2  2  2  2  2  2  2  2  2  2  2
++         2  2  2  2  2  2  2  2  2  2  2  2  2  2  2  0  0
++         0  0  0  0  0  0  0  0  0  0  0  0  0  0  0  0  0
++         0  0  0  0  0  0  0  0  0  0  0  0  0  0  0  0  0
++         0  0  0  0  0  0  0  0  0  0  0  0  0  0  0  0  0
%c cc cc ccc ccc cccc cccc cccc cccc ccccc ccccc ccccc ccccc
%c cc cc ccc ccc cccc cccc cccc cccc ccccc ccccc ccccc ccccc
%f  0.0000000  0.000000000  0.00000000000  0.000000000000000
%f  0.0000000  0.000000000  0.00000000000  0.000000000000000
%i    0    0    0    0      0      0      0      0         0
%i    0    0    0    0      0      0      0      0         0
/*      NGA, ST. LOUIS,MO.                                  
/*   EPHEMERIS COMPUTED FROM  1 DAYS OF DATA
/*   EPOCHA SMOOTHER  
/* CCCCCCCCCCCCCCCCCCCCCCCCCCCCCCCCCCCCCCCCCCCCCCCCCCCCCCCCC
*  2013  8  7 20 45  0.00000000                                                 
P  1  16066.361183    700.557078  21133.228319     60.219904                    
V  1   8942.186495  25342.447787  -7531.575581      0.047374                    
P  2 -13750.275102 -22178.846989  -6003.039350    445.466149                    
V  2   -188.311803  -8365.293611  29711.516623      0.017990                    
P  3  21601.479754   9719.193323 -12747.435434    242.998612                    
V  3 -15373.319786   2411.867710 -25070.821616      0.050220                    
P  4  -6278.176796 -25216.856941   4438.526419    293.753368                    
V  4   5662.363254   4300.240619  30736.607755      0.103080                    
P  5 -10761.895389 -11275.817496 -21522.296065   -399.354925                    
V  5  17421.673612 -21055.635009   2468.298084     -0.002529                    
P  6  16607.799774  13306.815441 -16054.982023    104.556639                    
V  6 -20517.322627    116.390879 -20662.607113     -0.186930                    
P  7   8836.386229 -15128.877016 -19812.075278    244.826834                    
V  7   9649.531418  23444.037206 -13872.033404      0.042226                    
P  8   2585.049219 -22813.183849 -12676.805310      7.826564                    
V  8   5826.533915  15504.875086 -27056.047246      0.001844                    
P  9    362.079373 -23341.283110 -13091.726814    259.804608                    
V  9   7152.750037  14124.822231 -26190.321679      0.025091                    
P 10   4335.794348 -21708.160159 -14661.637987    -89.770896                    
V 10  13841.927637 -12301.860669  23188.883534     -0.013855                    
P 11  20676.613167   6712.339536  14969.088059   -408.130891                    
V 11   9643.034919  17793.083840 -20411.256340     -0.035263                    
P 12 -19329.019023   4516.707628  17497.729171    149.221812                    
V 12  13605.685276 -17765.781105  19763.586534      0.021542                    
P 13  19282.981654  -6757.279852 -17180.595627     92.280766                    
V 13  20404.774789   6746.293826  20268.615314     -0.037421                    
P 14    768.804834  15435.182230  21827.851014    218.283136                    
V 14 -26504.547332  -5934.290861   5028.247641     -0.006180                    
P 15 -26554.074523  -2577.384556   1174.285411   -131.172249                    
V 15  -1088.490180  -3413.868955 -31068.424692     -0.017493                    
P 16   9616.417695  11209.625230 -22088.150070   -249.020282                    
V 16 -18926.419234  20532.199056   2509.356202      0.006138                    
P 17    938.921791 -15275.122487  21941.227615     -8.929683                    
V 17  26775.907914   5326.564912   2358.091110     -0.038323                    
P 18 -15838.410759  21064.713020   1267.486800    267.587599                    
V 18  -3973.217566  -1749.033000 -31145.879049      0.019782                    
P 19  25323.229531   8391.117856  -2629.966813   -394.844538                    
V 19  -3651.047698   1481.720278 -31303.824723     -0.028516                    
P 20  20146.715849 -10658.962463  13404.040476    114.246490                    
V 20  -7718.829393  15919.352905  24025.231866      0.024018                    
P 21  -6578.096314  18419.235761 -17156.996003   -312.415988                    
V 21 -10741.631321 -20743.751022 -18074.125485     -0.019377                    
P 22  -7251.563972  22784.456169  11609.498621    179.067722                    
V 22 -11822.863118   9168.470679 -25976.733122      0.017823                    
P 23  25353.649726  -1612.748038  -8347.943900     59.642918                    
V 23  10032.976963   4239.419510  28953.528766     -0.035234                    
P 24 -16907.596307  -4876.976165  19897.551394    -11.434170                    
V 24  -8163.720228 -23953.254606 -12758.456847     -0.006882                    
P 25 -19401.201542  16680.273454   6880.060764    132.568332                    
V 25   3663.861853  -8378.150847  30473.266797      0.047888                    
P 26 -19915.320865 -13592.196149 -12133.532389    132.003349                    
V 26  14187.784060   2123.983763 -26799.901571      0.172580                    
P 27  19401.049434  12419.335409 -13239.991221    -20.954731                    
V 27 -16937.096376   -405.994743 -25204.073576     -0.049047                    
P 28  11218.572548 -22078.318532   9934.792112    282.276467                    
V 28   9340.393779  -7447.901039 -28968.640224      0.030586                    
P 29 -20811.153617   6299.543431 -15178.945987    460.249339                    
V 29 -18536.880401  -5896.189818  22944.859215      0.031423                    
P 31   6103.018710  25402.572840   4017.960401    322.841917                    
V 31  -3878.295804  -3850.700069  31829.219697      0.009771                    
P 32  18515.174728    424.153694  18960.043307   -555.791494                    
V 32 -15430.761720  18530.274979  15271.874037      0.015277                    
EOF
